OBJECT_NAME,OBJECT_ID,EPOCH,MEAN_MOTION,ECCENTRICITY,INCLINATION,RA_OF_ASC_NODE,ARG_OF_PERICENTER,MEAN_ANOMALY,EPHEMERIS_TYPE,CLASSIFICATION_TYPE,NORAD_CAT_ID,ELEMENT_SET_NO,REV_AT_EPOCH,BSTAR,MEAN_MOTION_DOT,MEAN_MOTION_DDOT
ONEWEB-0578,2023-043X,2026-07-05T02:50:27.882528,13.21825668,.00022508,87.9244,240.4049,89.5402,270.5990,0,U,56067,999,16060,.175483E-5,.14E-6,0
ONEWEB-0579,2023-043Y,2026-07-05T02:38:19.999680,13.21827866,.00019802,87.9235,240.4043,102.9458,257.1897,0,U,56068,999,16061,-.20553779E-4,.5E-7,0
ONEWEB-0581,2023-043Z,2026-07-04T20:34:53.133024,13.16594426,.00016277,87.9083,225.2752,82.8194,277.3122,0,U,56069,999,16128,-.50846397E-4,-.7E-7,0
ONEWEB-0609,2023-043AA,2026-07-04T23:29:27.023136,13.15546990,.00021312,87.8992,255.6668,99.4115,260.7256,0,U,56070,999,15877,-.15726869E-3,-.46E-6,0
ONEWEB-0613,2023-043AB,2026-07-05T03:05:05.054208,13.15547701,.00020609,87.8992,255.6492,105.9878,254.1480,0,U,56071,999,15879,-.1346862E-5,.12E-6,0
ONEWEB-0630,2023-043AC,2026-07-05T02:58:14.926368,13.15549199,.00020178,87.9000,255.6229,105.5882,254.5471,0,U,56072,999,15878,.87300576E-4,.46E-6,0
ONEWEB-0632,2023-043AD,2026-07-04T17:43:47.346816,13.15548207,.0001846,87.8995,255.7168,96.6928,263.4413,0,U,56073,999,15873,.31190646E-3,.13E-5,0
ONEWEB-0633,2023-043AE,2026-07-05T04:31:48.146880,13.15548274,.00022209,87.9002,255.6040,109.3881,250.7489,0,U,56074,999,15877,.31294051E-3,.131E-5,0
ONEWEB-0634,2023-043AF,2026-07-04T15:24:36.347904,13.15547829,.00023358,87.8988,255.7520,96.1807,263.9589,0,U,56075,999,15869,.44568143E-3,.181E-5,0
ONEWEB-0635,2023-043AG,2026-07-05T04:04:24.877632,13.15547702,.00018075,87.9000,255.6108,95.0895,265.0441,0,U,56076,999,15879,.21684656E-3,.94E-6,0
ONEWEB-0636,2023-043AH,2026-07-05T03:52:59.630592,13.15547034,.00018954,87.8995,255.6184,94.5782,265.5565,0,U,56077,999,15877,-.9619582E-5,.9E-7,0
ONEWEB-0637,2023-043AJ,2026-07-05T03:43:52.613184,13.15547795,.00020692,87.8992,255.6351,90.5878,269.5490,0,U,56078,999,15879,-.18019137E-3,-.55E-6,0
ONEWEB-0647,2023-043AK,2026-07-05T03:37:02.219232,13.15548669,.00019101,87.8993,255.6483,100.6466,259.4879,0,U,56079,999,15878,-.14774811E-3,-.43E-6,0
ONEWEB-0651,2023-043AL,2026-07-05T07:09:14.065344,13.15547933,.00019269,87.8992,255.6123,92.5954,267.5397,0,U,56080,999,16000,.4001076E-4,.28E-6,0
ONEWEB-0718,2023-043AM,2026-07-05T03:23:20.908608,13.15549451,.00025619,87.8994,255.6243,98.8172,261.3249,0,U,56081,999,15879,-.14406916E-3,-.41E-6,0
ONEWEB-0561,2023-068A,2026-07-05T05:27:59.084352,13.20774440,.00016494,87.9197,270.8488,100.0531,260.0789,0,U,56710,999,15188,-.309566E-5,.12E-6,0
ONEWEB-0668,2023-068B,2026-07-05T01:26:42.618336,13.16594693,.00024837,87.9084,225.2229,86.7743,273.3672,0,U,56711,999,15413,.30162191E-4,.24E-6,0
ONEWEB-0676,2023-068C,2026-07-05T01:38:06.862272,13.16593883,.00017545,87.9081,225.2275,89.2846,270.8486,0,U,56712,999,15405,-.11836887E-4,.8E-7,0
ONEWEB-0677,2023-068D,2026-07-04T16:27:25.733664,13.20770935,.00020783,87.9194,270.9480,88.4648,271.6723,0,U,56713,999,15211,.38363636E-4,.29E-6,0
ONEWEB-0678,2023-068E,2026-07-05T04:27:13.975488,13.15548018,.00019211,87.9003,255.6091,106.5458,253.5884,0,U,56714,999,15165,.56024024E-3,.224E-5,0
ONEWEB-0679,2023-068F,2026-07-04T08:13:54.400800,13.16594423,.00022452,87.9085,225.3627,80.2077,279.9307,0,U,56715,999,15398,.277425E-3,.119E-5,0
ONEWEB-0680,2023-068G,2026-07-04T13:57:43.767648,13.21825376,.0002456,87.9249,240.5112,86.4675,273.6740,0,U,56716,999,15339,.15252465E-3,.76E-6,0
ONEWEB-0681,2023-068H,2026-07-05T04:01:53.370048,13.21824286,.00013038,87.9249,240.3951,79.3546,280.7734,0,U,56717,999,15346,.40583732E-3,.181E-5,0
ONEWEB-0682,2023-068J,2026-07-04T21:43:22.388736,13.15547774,.00024049,87.9002,255.6653,88.3666,271.7739,0,U,56718,999,15178,-.32907953E-3,-.111E-5,0
ONEWEB-0683,2023-068K,2026-07-05T03:46:09.672096,13.15547839,.00022861,87.9000,255.6153,95.7030,264.4361,0,U,56719,999,15178,-.74702164E-4,-.15E-6,0
ONEWEB-0684,2023-068L,2026-07-05T03:57:34.545888,13.15549085,.00025837,87.8999,255.6033,130.3195,229.8161,0,U,56720,999,15161,.1220712E-3,.59E-6,0
ONEWEB-0686,2023-068M,2026-07-05T01:31:16.162464,13.16593581,.00024123,87.9081,225.2414,97.7080,262.4325,0,U,56721,999,15406,-.54821734E-4,-.8E-7,0
ONEWEB-0694,2023-068N,2026-07-05T01:40:23.158272,13.16593132,.00024207,87.9092,225.2082,87.1866,272.9542,0,U,56722,999,15412,-.62927351E-4,-.11E-6,0
ONEWEB-0696,2023-068P,2026-07-05T04:45:29.422944,13.15549392,.00018219,87.8993,255.6337,111.9272,248.2052,0,U,56723,999,15173,.2226935E-3,.97E-6,0
ONEWEB-0703,2023-068Q,2026-07-04T21:41:04.472736,13.15547516,.00013575,87.8996,255.6736,118.4998,241.6269,0,U,56724,999,15158,-.28723193E-3,-.95E-6,0
